IRIDIUM 155             
1 43573U 18061E   22106.34341164  .00000214  00000+0  69309-4 0  9992
2 43573  86.3969 333.1185 0001838  81.7020 278.4384 14.34215223195094
IRIDIUM 154             
1 43574U 18061F   22106.53367835  .00000104  00000+0  29964-4 0  9998
2 43574  86.3972 333.0995 0002411  85.3177 274.8294 14.34214647195165
IRIDIUM 163             
1 43575U 18061G   22106.16581443  .00000214  00000+0  69228-4 0  9990
2 43575  86.3971 333.2152 0002187  98.0076 262.1368 14.34217035195088
IRIDIUM 156             
1 43576U 18061H   22105.86136235  .00000192  00000+0  61359-4 0  9994
2 43576  86.3972 333.3479 0001918  91.3523 268.7892 14.34214657195033
IRIDIUM 164             
1 43577U 18061J   22106.33071320 -.00000003  00000+0 -81413-5 0  9998
2 43577  86.3970 333.1684 0002273  89.0568 271.0888 14.34214342195141
IRIDIUM 159             
1 43578U 18061K   22105.88039954  .00000210  00000+0  67942-4 0  9993
2 43578  86.3973 333.3259 0002323  86.9707 273.1754 14.34216818195046
IRIDIUM 180             
1 43922U 19002A   22105.87988817  .00000054  00000+0  12376-4 0  9999
2 43922  86.3926 270.1492 0002818  97.0970 263.0547 14.34216673170655
IRIDIUM 176             
1 43923U 19002B   22106.47829693  .00000247  00000+0  35214-4 0  9993
2 43923  86.6062 269.9330 0002249  88.7264 271.4211 14.72263455175218
IRIDIUM 168             
1 43924U 19002C   22106.50145968  .00000046  00000+0  95329-5 0  9995
2 43924  86.3929 269.9235 0002399  91.1447 269.0024 14.34215541170726
IRIDIUM 173             
1 43925U 19002D   22105.93062439  .00000041  00000+0  77225-5 0  9993
2 43925  86.3925 270.1132 0002324  93.0675 267.0786 14.34215676170626
IRIDIUM 169             
1 43926U 19002E   22106.05030323  .00000073  00000+0  17346-4 0  9997
2 43926  86.4178 301.6927 0003660 344.1181  15.9902 14.38613275171246
IRIDIUM 172             
1 43927U 19002F   22106.55219924  .00000049  00000+0  10288-4 0  9990
2 43927  86.3926 269.8565 0002429  93.4559 266.6915 14.34216384170722
IRIDIUM 175             
1 43928U 19002G   22106.47214609  .00000336  00000+0  49403-4 0  9997
2 43928  86.6065 269.7641 0002619  94.9527 265.1989 14.72243774175204
IRIDIUM 171             
1 43929U 19002H   22105.90525566  .00000054  00000+0  12125-4 0  9990
2 43929  86.3935 270.2645 0002384  90.4808 269.6661 14.34215337170620
IRIDIUM 170             
1 43930U 19002J   22105.94078610  .00000253  00000+0  36266-4 0  9992
2 43930  86.6061 270.1636 0002402  86.4352 273.7140 14.72255460175147
IRIDIUM 167             
1 43931U 19002K   22105.89890908  .00000053  00000+0  11911-4 0  9997
2 43931  86.3926 270.1388 0002609  93.1655 266.9839 14.34215730170620
